{
  "type": "FeatureCollection",
  "features": [
    {
      "type": "Feature",
      "properties": {
        "norad_id": 36036,
        "name": "SMOS",
        "group": "resource",
        "lat": 2.056343763280591,
        "lon": -8.771463081584885,
        "alt_km": 762.0880853472745,
        "timestamp": "2025-12-11T20:41:14.743996+00:00",
        "meta_object_name": "SMOS",
        "meta_object_id": "2009-059A",
        "meta_epoch": "2025-12-11T11:31:28.732224",
        "meta_mean_motion": 14.39739805,
        "meta_eccentricity": 0.00011031,
        "meta_inclination": 98.438,
        "meta_ra_of_asc_node": 170.5472,
        "meta_arg_of_pericenter": 85.0152,
        "meta_mean_anomaly": 275.1162,
        "meta_ephemeris_type": 0,
        "meta_classification_type": "U",
        "meta_norad_cat_id": 36036,
        "meta_element_set_no": 999,
        "meta_rev_at_epoch": 84644,
        "meta_bstar": 0.0002199024,
        "meta_mean_motion_dot": 6.45e-06,
        "meta_mean_motion_ddot": 0,
        "tle_line1": "1 36036U 09059A   25345.48019366  .00000645  00000+0  21990-3 0  9995",
        "tle_line2": "2 36036  98.4380 170.5472 0001103  85.0152 275.1162 14.39739805846443"
      },
      "geometry": {
        "type": "Point",
        "coordinates": [
          -8.771463081584885,
          2.056343763280591
        ]
      }
    },
    {
      "type": "Feature",
      "properties": {
        "norad_id": 36110,
        "name": "YAOGAN-7",
        "group": "resource",
        "lat": -61.69364005597515,
        "lon": 32.4265521823897,
        "alt_km": 631.3837977316771,
        "timestamp": "2025-12-11T20:41:14.744006+00:00",
        "meta_object_name": "YAOGAN-7",
        "meta_object_id": "2009-069A",
        "meta_epoch": "2025-12-11T14:42:54.355104",
        "meta_mean_motion": 14.77729937,
        "meta_eccentricity": 0.00233975,
        "meta_inclination": 98.0301,
        "meta_ra_of_asc_node": 227.3742,
        "meta_arg_of_pericenter": 285.1322,
        "meta_mean_anomaly": 74.7301,
        "meta_ephemeris_type": 0,
        "meta_classification_type": "U",
        "meta_norad_cat_id": 36110,
        "meta_element_set_no": 999,
        "meta_rev_at_epoch": 86192,
        "meta_bstar": 0.00015791372,
        "meta_mean_motion_dot": 1.083e-05,
        "meta_mean_motion_ddot": 0,
        "tle_line1": "1 36110U 09069A   25345.61312911  .00001083  00000+0  15791-3 0  9995",
        "tle_line2": "2 36110  98.0301 227.3742 0023397 285.1322  74.7301 14.77729937861922"
      },
      "geometry": {
        "type": "Point",
        "coordinates": [
          32.4265521823897,
          -61.69364005597515
        ]
      }
    },
    {
      "type": "Feature",
      "properties": {
        "norad_id": 36605,
        "name": "TANDEM-X",
        "group": "resource",
        "lat": -2.176481399937351,
        "lon": -8.46015857403324,
        "alt_km": 511.6033277357137,
        "timestamp": "2025-12-11T20:41:14.744016+00:00",
        "meta_object_name": "TANDEM-X",
        "meta_object_id": "2010-030A",
        "meta_epoch": "2025-12-11T11:12:43.510464",
        "meta_mean_motion": 15.19157824,
        "meta_eccentricity": 0.00018635,
        "meta_inclination": 97.4452,
        "meta_ra_of_asc_node": 350.866,
        "meta_arg_of_pericenter": 82.9447,
        "meta_mean_anomaly": 277.1999,
        "meta_ephemeris_type": 0,
        "meta_classification_type": "U",
        "meta_norad_cat_id": 36605,
        "meta_element_set_no": 999,
        "meta_rev_at_epoch": 85814,
        "meta_bstar": 0.00012772132,
        "meta_mean_motion_dot": 2.617e-05,
        "meta_mean_motion_ddot": 0,
        "tle_line1": "1 36605U 10030A   25345.46717026  .00002617  00000+0  12772-3 0  9993",
        "tle_line2": "2 36605  97.4452 350.8660 0001863  82.9447 277.1999 15.19157824858146"
      },
      "geometry": {
        "type": "Point",
        "coordinates": [
          -8.46015857403324,
          -2.176481399937351
        ]
      }
    },
    {
      "type": "Feature",
      "properties": {
        "norad_id": 36795,
        "name": "CARTOSAT-2B",
        "group": "resource",
        "lat": 12.421481660135825,
        "lon": -143.35221579737484,
        "alt_km": 634.2457561800975,
        "timestamp": "2025-12-11T20:41:14.744025+00:00",
        "meta_object_name": "CARTOSAT-2B",
        "meta_object_id": "2010-035A",
        "meta_epoch": "2025-12-11T16:41:10.776768",
        "meta_mean_motion": 14.78719233,
        "meta_eccentricity": 0.0012733,
        "meta_inclination": 97.7856,
        "meta_ra_of_asc_node": 34.7596,
        "meta_arg_of_pericenter": 80.3267,
        "meta_mean_anomaly": 279.9382,
        "meta_ephemeris_type": 0,
        "meta_classification_type": "U",
        "meta_norad_cat_id": 36795,
        "meta_element_set_no": 999,
        "meta_rev_at_epoch": 83214,
        "meta_bstar": 0.00017903,
        "meta_mean_motion_dot": 1.265e-05,
        "meta_mean_motion_ddot": 0,
        "tle_line1": "1 36795U 10035A   25345.69526362  .00001265  00000+0  17903-3 0  9993",
        "tle_line2": "2 36795  97.7856  34.7596 0012733  80.3267 279.9382 14.78719233832143"
      },
      "geometry": {
        "type": "Point",
        "coordinates": [
          -143.35221579737484,
          12.421481660135825
        ]
      }
    },
    {
      "type": "Feature",
      "properties": {
        "norad_id": 36834,
        "name": "YAOGAN-10",
        "group": "resource",
        "lat": -48.2642809479584,
        "lon": 176.71782582181893,
        "alt_km": 622.5858983204853,
        "timestamp": "2025-12-11T20:41:14.744054+00:00",
        "meta_object_name": "YAOGAN-10",
        "meta_object_id": "2010-038A",
        "meta_epoch": "2025-12-11T15:16:47.747136",
        "meta_mean_motion": 14.84601252,
        "meta_eccentricity": 0.00015446,
        "meta_inclination": 97.9145,
        "meta_ra_of_asc_node": 5.4656,
        "meta_arg_of_pericenter": 83.8793,
        "meta_mean_anomaly": 21.4495,
        "meta_ephemeris_type": 0,
        "meta_classification_type": "U",
        "meta_norad_cat_id": 36834,
        "meta_element_set_no": 999,
        "meta_rev_at_epoch": 82937,
        "meta_bstar": 0.00045370515,
        "meta_mean_motion_dot": 3.779e-05,
        "meta_mean_motion_ddot": 0,
        "tle_line1": "1 36834U 10038A   25345.63666374  .00003779  00000+0  45371-3 0  9994",
        "tle_line2": "2 36834  97.9145   5.4656 0001544  83.8793  21.4495 14.84601252829376"
      },
      "geometry": {
        "type": "Point",
        "coordinates": [
          176.71782582181893,
          -48.2642809479584
        ]
      }
    },
    {
      "type": "Feature",
      "properties": {
        "norad_id": 37216,
        "name": "COSMO-SKYMED 4",
        "group": "resource",
        "lat": 19.999282061028744,
        "lon": -9.911873109767981,
        "alt_km": 622.4519957568618,
        "timestamp": "2025-12-11T20:41:14.744065+00:00",
        "meta_object_name": "COSMO-SKYMED 4",
        "meta_object_id": "2010-060A",
        "meta_epoch": "2025-12-11T15:06:31.247712",
        "meta_mean_motion": 14.82167353,
        "meta_eccentricity": 0.00013923,
        "meta_inclination": 97.8808,
        "meta_ra_of_asc_node": 166.9696,
        "meta_arg_of_pericenter": 78.5142,
        "meta_mean_anomaly": 281.6228,
        "meta_ephemeris_type": 0,
        "meta_classification_type": "U",
        "meta_norad_cat_id": 37216,
        "meta_element_set_no": 999,
        "meta_rev_at_epoch": 81678,
        "meta_bstar": 0.00012202365,
        "meta_mean_motion_dot": 9.2e-06,
        "meta_mean_motion_ddot": 0,
        "tle_line1": "1 37216U 10060A   25345.62952833  .00000920  00000+0  12202-3 0  9993",
        "tle_line2": "2 37216  97.8808 166.9696 0001392  78.5142 281.6228 14.82167353816785"
      },
      "geometry": {
        "type": "Point",
        "coordinates": [
          -9.911873109767981,
          19.999282061028744
        ]
      }
    },
    {
      "type": "Feature",
      "properties": {
        "norad_id": 37387,
        "name": "RESOURCESAT-2",
        "group": "resource",
        "lat": -43.823470167673925,
        "lon": 57.95563922193772,
        "alt_km": 826.5247562787454,
        "timestamp": "2025-12-11T20:41:14.744076+00:00",
        "meta_object_name": "RESOURCESAT-2",
        "meta_object_id": "2011-015A",
        "meta_epoch": "2025-12-11T14:08:21.835968",
        "meta_mean_motion": 14.21596509,
        "meta_eccentricity": 0.00064933,
        "meta_inclination": 98.7879,
        "meta_ra_of_asc_node": 49.1461,
        "meta_arg_of_pericenter": 45.634,
        "meta_mean_anomaly": 314.5368,
        "meta_ephemeris_type": 0,
        "meta_classification_type": "U",
        "meta_norad_cat_id": 37387,
        "meta_element_set_no": 999,
        "meta_rev_at_epoch": 75952,
        "meta_bstar": 0.00012482815,
        "meta_mean_motion_dot": 2.29e-06,
        "meta_mean_motion_ddot": 0,
        "tle_line1": "1 37387U 11015A   25345.58914162  .00000229  00000+0  12483-3 0  9994",
        "tle_line2": "2 37387  98.7879  49.1461 0006493  45.6340 314.5368 14.21596509759527"
      },
      "geometry": {
        "type": "Point",
        "coordinates": [
          57.95563922193772,
          -43.823470167673925
        ]
      }
    }
  ]
}